[
    {
        "Altitude(m)": 622205.8943078228,
        "Argument of Periapsis(deg)": 0.0,
        "Eccentricity": 0.0,
        "Inclination(deg)": 60.0,
        "Latitude(deg)": -52.16250943012211,
        "Longitude(deg)": -127.29968293164337,
        "Mean Anomaly(deg)": 245.45450000000002,
        "RAAN(deg)": 105.0,
        "Satellite Name": "Test1 477",
        "Satellite Number": 477,
        "Semi-Major Axis(m)": 6980739.136638005,
        "Time(s)": 0
    },
    {
        "Altitude(m)": 622344.8010569859,
        "Argument of Periapsis(deg)": 0.00010418945913296404,
        "Eccentricity": 0.0,
        "Inclination(deg)": 60.0,
        "Latitude(deg)": -52.52008983543667,
        "Longitude(deg)": -126.51847025377297,
        "Mean Anomaly(deg)": 246.07460614546184,
        "RAAN(deg)": 104.99957995086028,
        "Satellite Name": "Test1 477",
        "Satellite Number": 477,
        "Semi-Major Axis(m)": 6980739.136638005,
        "Time(s)": 10
    }
]